ONEWEB-0555             
1 56057U 23043M   25088.92904251  .00000168  00000+0  40587-3 0  9991
2 56057  87.9063 317.3324 0001564 104.9401 255.1903 13.16594269100503
ONEWEB-0557             
1 56058U 23043N   25088.86728810  .00000067  00000+0  14190-3 0  9999
2 56058  87.9063 317.3685 0002075 112.1992 247.9360 13.16593974100494
ONEWEB-0558             
1 56059U 23043P   25088.95332457 -.00000037  00000+0 -11991-3 0  9993
2 56059  87.9317 332.5625 0001748  64.1260 296.0054 13.21823502 99558
ONEWEB-0559             
1 56060U 23043Q   25088.94229854  .00000029  00000+0  39670-4 0  9994
2 56060  87.9313 332.5580 0002119  72.5658 287.5707 13.21825155 99560
ONEWEB-0566             
1 56061U 23043R   25088.70889654  .00000169  00000+0  37744-3 0  9993
2 56061  87.9311 332.6036 0002000  64.3756 295.7584 13.21826357 99517
ONEWEB-0568             
1 56062U 23043S   25089.56867634 -.00000020  00000+0 -85844-4 0  9996
2 56062  87.9062 317.1942 0001568  91.7128 268.4183 13.16593584101513
ONEWEB-0574             
1 56063U 23043T   25089.38384310  .00000154  00000+0  34098-3 0  9992
2 56063  87.9307 332.4594 0001625  82.1223 278.0096 13.21823500100556
ONEWEB-0575             
1 56064U 23043U   25089.18235630  .00000046  00000+0  86689-4 0  9995
2 56064  87.9064 317.2834 0001980  96.9835 263.1521 13.16593630101451
ONEWEB-0576             
1 56065U 23043V   25089.16336697  .00000139  00000+0  32926-3 0  9996
2 56065  87.9062 317.2785 0001661  91.5948 268.5373 13.16593872101448
ONEWEB-0577             
1 56066U 23043W   25089.16969486  .00000063  00000+0  13011-3 0  9995
2 56066  87.9063 317.2776 0002189  99.8124 260.3254 13.16592984101477
ONEWEB-0578             
1 56067U 23043X   25089.21983190  .00000075  00000+0  14985-3 0  9994
2 56067  87.9317 332.4997 0001696  85.5240 274.6087 13.21828902100498
ONEWEB-0579             
1 56068U 23043Y   25089.43747558 -.00000041  00000+0 -12974-3 0  9996
2 56068  87.9310 332.4450 0002004  74.4645 285.6710 13.21824916100537
ONEWEB-0581             
1 56069U 23043Z   25088.87203556  .00000065  00000+0  13549-3 0  9992
2 56069  87.9062 317.3675 0002169  88.5625 271.5754 13.16592993100497
ONEWEB-0609             
1 56070U 23043AA  25089.46530309  .00000164  00000+0  40256-3 0  9994
2 56070  87.9124 347.6259 0001707  75.5803 284.5517 13.15547800 99004
ONEWEB-0613             
1 56071U 23043AB  25088.77603356  .00000249  00000+0  62753-3 0  9991
2 56071  87.9129 347.7703 0001954  72.1444 287.9900 13.15549104 98004
ONEWEB-0630             
1 56072U 23043AC  25089.22762093  .00000137  00000+0  32908-3 0  9992
2 56072  87.9126 347.6613 0001906  69.1210 291.0124 13.15547399 98968
ONEWEB-0632             
1 56073U 23043AD  25089.45104828  .00000078  00000+0  17374-3 0  9998
2 56073  87.9123 347.6366 0002044  81.1924 278.9437 13.15549364 98999
ONEWEB-0633             
1 56074U 23043AE  25088.76018654  .00000054  00000+0  11007-3 0  9994
2 56074  87.9123 347.7442 0001804  64.7872 295.3445 13.15547921 97974
ONEWEB-0634             
1 56075U 23043AF  25088.97409299 -.00000123  00000+0 -36129-3 0  9998
2 56075  87.9129 347.7316 0001445  72.5991 287.5297 13.15550035 97991
ONEWEB-0635             
1 56076U 23043AG  25088.96934246 -.00000071  00000+0 -22325-3 0  9998
2 56076  87.9099 347.7401 0002083  83.9158 276.2210 13.15547619 98022
ONEWEB-0636             
1 56077U 23043AH  25088.96141903 -.00000069  00000+0 -21676-3 0  9994
2 56077  87.9111 347.7441 0002043  82.6704 277.4659 13.15549472 98008
ONEWEB-0637             
1 56078U 23043AJ  25089.25931147  .00000072  00000+0  15651-3 0  9993
2 56078  87.9131 347.6742 0001784  89.5100 270.6235 13.15551213 98978
ONEWEB-0647             
1 56079U 23043AK  25089.55878786  .00000169  00000+0  41607-3 0  9993
2 56079  87.9122 347.6265 0002000  77.2626 282.8728 13.15550066 98098
ONEWEB-0651             
1 56080U 23043AL  25089.24980845  .00000212  00000+0  52825-3 0  9994
2 56080  87.9130 347.6732 0001926  87.4478 272.6873 13.15548495 98059
ONEWEB-0718             
1 56081U 23043AM  25088.94083066  .00000147  00000+0  35525-3 0  9995
2 56081  87.9128 347.7185 0001304  76.1152 284.0124 13.15549106 98027
ONEWEB-0561             
1 56710U 23068A   25089.49025779  .00000023  00000+0  25869-4 0  9993
2 56710  87.9321   2.7912 0002384  84.0817 276.0588 13.20771090 91632
ONEWEB-0668             
1 56711U 23068B   25089.17839194  .00000048  00000+0  93161-4 0  9990
2 56711  87.9058 317.2651 0001157  93.3025 266.8239 13.16596012 94058
ONEWEB-0676             
1 56712U 23068C   25089.15861777  .00000133  00000+0  31467-3 0  9996
2 56712  87.9061 317.2960 0002200  86.9116 273.2266 13.16594258 93977
ONEWEB-0677             
1 56713U 23068D   25088.79738209  .00000126  00000+0  27818-3 0  9996
2 56713  87.9327   2.9012 0001964  87.4777 272.6581 13.20769455 91142
ONEWEB-0678             
1 56714U 23068E   25088.75701617  .00000010  00000+0 -79803-5 0  9992
2 56714  87.9127 347.7247 0002024  70.9001 289.2348 13.15548060 90859
ONEWEB-0679             
1 56715U 23068F   25088.89974422 -.00000019  00000+0 -82257-4 0  9990
2 56715  87.9056 317.3424 0001736 102.5583 257.5742 13.16592912 93267
ONEWEB-0680             
1 56716U 23068G   25089.21352616  .00000071  00000+0  13996-3 0  9992
2 56716  87.9292 332.5113 0001205  98.6288 261.4982 13.21828595 93144
ONEWEB-0681             
1 56717U 23068H   25089.22378514  .00000106  00000+0  22541-3 0  9994
2 56717  87.9313 332.5188 0002559  97.4477 262.6947 13.21824851 93135
ONEWEB-0682             
1 56718U 23068J   25089.16345604  .00000953  00000+0  24981-2 0  9991
2 56718  87.9134 347.6770 0001162  96.2219 263.9044 13.15541577 91775
ONEWEB-0683             
1 56719U 23068K   25089.26089525  .00000157  00000+0  38258-3 0  9999
2 56719  87.9126 347.6290 0001501  84.3760 275.7541 13.15548335 91750
ONEWEB-0684             
1 56720U 23068L   25089.26881803  .00000032  00000+0  51463-4 0  9996
2 56720  87.9103 347.6653 0002350  39.8352 320.2951 13.15547593 91582
ONEWEB-0686             
1 56721U 23068M   25088.88945246 -.00000061  00000+0 -19415-3 0  9990
2 56721  87.9061 317.3810 0001394  79.2494 280.8794 13.16593067 93954
ONEWEB-0694             
1 56722U 23068N   25088.93220346  .00000173  00000+0  41904-3 0  9994
2 56722  87.9056 317.2910 0001407  94.4655 265.6637 13.16593811 93316
ONEWEB-0696             
1 56723U 23068P   25089.22603397  .00000159  00000+0  38713-3 0  9997
2 56723  87.9127 347.6881 0001978  71.1140 289.0205 13.15549284 91698
ONEWEB-0703             
1 56724U 23068Q   25089.46371932  .00000221  00000+0  55424-3 0  9999
2 56724  87.9107 347.6523 0002864  69.8406 290.3032 13.15547410 91618
ONEWEB-0721             
1 56725U 23068R   25089.39260685  .00000146  00000+0  31493-3 0  9990
2 56725  86.6797 226.9184 0001695 104.3698 255.7624 13.22429802 99983
ONEWEB-0015             
1 61594U 24188A   25089.58335648 -.00014989  00000+0 -36766-1 0  9995
2 61594  87.8891 109.5546 0005839  74.4140  85.9690 13.21117551 24373
ONEWEB-0687             
1 61595U 24188B   25089.58335648 -.01049199  00000+0 -19479+0 0  9998
2 61595  86.6938 101.2929 0006096  38.6735 287.3444 14.68379416 25160
ONEWEB-0688             
1 61596U 24188C   25089.58335648 -.01057750  00000+0 -18579+0 0  9991
2 61596  86.6798 101.2940 0005507  46.4676 325.2302 14.70835869 24936
ONEWEB-0689             
1 61597U 24188D   25089.58335648  .00000014  00000+0  00000+0 0  9990
2 61597  87.8175 109.5494 0004410  52.9958 222.4390 13.30412150 24429
ONEWEB-0690             
1 61598U 24188E   25089.58335648  .00000015  00000+0  00000+0 0  9992
2 61598  87.8883 109.5047 0009378  55.3153  33.5292 13.63874486 24558
ONEWEB-0691             
1 61599U 24188F   25089.50002315  .00000014  00000+0  00000+0 0  9996
2 61599  87.8164 109.5598 0006622  37.1870  50.5275 13.31677741 24588
ONEWEB-0692             
1 61600U 24188G   25089.58335648  .00000014  00000+0  00000+0 0  9995
2 61600  87.8144 109.5495 0005066  65.1391  35.2278 13.31510212 24521
ONEWEB-0693             
1 61601U 24188H   25089.58335648 -.01022280  00000+0 -20229+0 0  9993
2 61601  86.7088 101.1979 0005117  68.6275 155.3533 14.65483923 25095
ONEWEB-0695             
1 61602U 24188J   25089.58335648  .00000014  00000+0  00000+0 0  9997
2 61602  87.7881 109.5545 0004466  62.7032 248.4326 13.32682531 24554
ONEWEB-0697             
1 61603U 24188K   25089.58335648  .00000014  00000+0  00000+0 0  9998
2 61603  87.8104 109.5492 0003402  86.7495 331.8499 13.31141616 24565
ONEWEB-0698             
1 61604U 24188L   25089.58335648  .00000014  00000+0  00000+0 0  9999
2 61604  87.7976 109.5609 0006493  51.2092  78.4098 13.32467978 24343
ONEWEB-0699             
1 61605U 24188M   25089.50207734 -.00000575  00000+0 -16847-2 0  9999
2 61605  87.8814 124.7116 0001914  82.0057 278.1288 13.10370496 23336
ONEWEB-0700             
1 61606U 24188N   25089.50370588 -.00000616  00000+0 -18014-2 0  9992
2 61606  87.8728 124.6912 0001252 104.4841 255.6425 13.10367876 23385
ONEWEB-0701             
1 61607U 24188P   25089.52034715 -.00000248  00000+0 -74611-3 0  9991
2 61607  87.8818 124.7146 0001293  74.6397 285.4873 13.10372959 23538
ONEWEB-0702             
1 61608U 24188Q   25089.58335648  .00000014  00000+0  00000+0 0  9993
2 61608  87.8257 109.5675 0008296  57.2911 155.5705 13.32457794 24406
ONEWEB-0704             
1 61609U 24188R   25089.12692298 -.00000603  00000+0 -17647-2 0  9995
2 61609  87.8846 124.7018 0000970  93.4084 266.7154 13.10373740 23287
ONEWEB-0705             
1 61610U 24188S   25089.13191473 -.00003762  00000+0 -10819-1 0  9999
2 61610  87.8798 124.7886 0001320 137.1833 222.9397 13.10357103 23442
ONEWEB-0706             
1 61611U 24188T   25089.14096130 -.00000012  00000+0 -58985-4 0  9999
2 61611  87.9298 124.7841 0002338 125.4228 234.7125 13.23003714 23325
